GLOBALSTAR M073 [+]     
1 37193U 10054F   24031.83923407 -.00000093  00000+0  59853-4 0  9995
2 37193  52.0040 184.5098 0000972  94.5271  52.9303 12.62272005614445
GLOBALSTAR M083 [+]     
1 37739U 11033A   24031.69417639 -.00000080  00000+0  13544-3 0  9990
2 37739  51.9859 134.3712 0000777 122.4772  25.1216 12.62265540583753
GLOBALSTAR M088 [+]     
1 37740U 11033B   24031.43396302 -.00000096  00000+0  43108-4 0  9994
2 37740  51.9747  41.0769 0000290 158.7605   6.4120 12.62264463578904
GLOBALSTAR M091 [+]     
1 37741U 11033C   24031.11190709 -.00000093  00000+0  58316-4 0  9997
2 37741  52.0026   4.7145 0000137 147.8149 292.5850 12.62270596579658
GLOBALSTAR M085 [+]     
1 37742U 11033D   24031.71653236 -.00000067  00000+0  20791-3 0  9999
2 37742  51.9887 314.3603 0000351  72.6693 296.2169 12.62267207580738
